[{"OBJECT_NAME":"ONEWEB-0259","OBJECT_ID":"2021-060L","EPOCH":"2026-03-31T03:00:11.375424","MEAN_MOTION":13.16595042,"ECCENTRICITY":0.0001888,"INCLINATION":87.9036,"RA_OF_ASC_NODE":244.2969,"ARG_OF_PERICENTER":96.2373,"MEAN_ANOMALY":263.8974,"EPHEMERIS_TYPE":0,"CLASSIFICATION_TYPE":"U","NORAD_CAT_ID":48977,"ELEMENT_SET_NO":999,"REV_AT_EPOCH":22935,"BSTAR":-9.7255e-05,"MEAN_MOTION_DOT":-2.4e-07,"MEAN_MOTION_DDOT":0.0},{"OBJECT_NAME":"ONEWEB-0260","OBJECT_ID":"2021-060M","EPOCH":"2026-03-31T02:47:38.320800","MEAN_MOTION":13.16593295,"ECCENTRICITY":0.000169,"INCLINATION":87.9035,"RA_OF_ASC_NODE":244.3044,"ARG_OF_PERICENTER":113.2309,"MEAN_ANOMALY":246.9,"EPHEMERIS_TYPE":0,"CLASSIFICATION_TYPE":"U","NORAD_CAT_ID":48978,"ELEMENT_SET_NO":999,"REV_AT_EPOCH":22933,"BSTAR":0.00015806999999999998,"MEAN_MOTION_DOT":7.3e-07,"MEAN_MOTION_DDOT":0.0},{"OBJECT_NAME":"ONEWEB-0261","OBJECT_ID":"2021-060N","EPOCH":"2026-03-31T03:53:45.414816","MEAN_MOTION":13.1659372,"ECCENTRICITY":0.0002102,"INCLINATION":87.9028,"RA_OF_ASC_NODE":244.2937,"ARG_OF_PERICENTER":102.0484,"MEAN_ANOMALY":258.0882,"EPHEMERIS_TYPE":0,"CLASSIFICATION_TYPE":"U","NORAD_CAT_ID":48979,"ELEMENT_SET_NO":999,"REV_AT_EPOCH":22939,"BSTAR":7.1056e-05,"MEAN_MOTION_DOT":4e-07,"MEAN_MOTION_DDOT":0.0},{"OBJECT_NAME":"ONEWEB-0262","OBJECT_ID":"2021-060P","EPOCH":"2026-03-31T03:25:16.495392","MEAN_MOTION":13.16595396,"ECCENTRICITY":0.0001905,"INCLINATION":87.9036,"RA_OF_ASC_NODE":244.2811,"ARG_OF_PERICENTER":91.2581,"MEAN_ANOMALY":268.8768,"EPHEMERIS_TYPE":0,"CLASSIFICATION_TYPE":"U","NORAD_CAT_ID":48980,"ELEMENT_SET_NO":999,"REV_AT_EPOCH":22935,"BSTAR":-0.00016905000000000002,"MEAN_MOTION_DOT":-5.2e-07,"MEAN_MOTION_DDOT":0.0},{"OBJECT_NAME":"ONEWEB-0263","OBJECT_ID":"2021-060Q","EPOCH":"2026-03-30T22:42:33.922080","MEAN_MOTION":13.16594828,"ECCENTRICITY":0.0002118,"INCLINATION":87.9034,"RA_OF_ASC_NODE":244.3317,"ARG_OF_PERICENTER":99.1208,"MEAN_ANOMALY":261.0162,"EPHEMERIS_TYPE":0,"CLASSIFICATION_TYPE":"U","NORAD_CAT_ID":48981,"ELEMENT_SET_NO":999,"REV_AT_EPOCH":22929,"BSTAR":0.00021132,"MEAN_MOTION_DOT":9.4e-07,"MEAN_MOTION_DDOT":0.0},{"OBJECT_NAME":"ONEWEB-0264","OBJECT_ID":"2021-060R","EPOCH":"2026-03-31T03:15:01.654848","MEAN_MOTION":13.16593895,"ECCENTRICITY":0.0001896,"INCLINATION":87.9036,"RA_OF_ASC_NODE":244.2978,"ARG_OF_PERICENTER":105.5624,"MEAN_ANOMALY":254.5717,"EPHEMERIS_TYPE":0,"CLASSIFICATION_TYPE":"U","NORAD_CAT_ID":48982,"ELEMENT_SET_NO":999,"REV_AT_EPOCH":22932,"BSTAR":-0.00020139000000000002,"MEAN_MOTION_DOT":-6.4e-07,"MEAN_MOTION_DDOT":0.0},{"OBJECT_NAME":"ONEWEB-0266","OBJECT_ID":"2021-060T","EPOCH":"2026-03-30T22:17:28.563648","MEAN_MOTION":13.16593031,"ECCENTRICITY":0.0001713,"INCLINATION":87.9034,"RA_OF_ASC_NODE":244.3284,"ARG_OF_PERICENTER":96.9983,"MEAN_ANOMALY":263.1343,"EPHEMERIS_TYPE":0,"CLASSIFICATION_TYPE":"U","NORAD_CAT_ID":48984,"ELEMENT_SET_NO":999,"REV_AT_EPOCH":22928,"BSTAR":2.0577000000000003e-05,"MEAN_MOTION_DOT":2.1e-07,"MEAN_MOTION_DDOT":0.0},{"OBJECT_NAME":"ONEWEB-0267","OBJECT_ID":"2021-060U","EPOCH":"2026-03-30T22:33:27.043776","MEAN_MOTION":13.16594813,"ECCENTRICITY":0.0001926,"INCLINATION":87.9033,"RA_OF_ASC_NODE":244.3225,"ARG_OF_PERICENTER":101.7371,"MEAN_ANOMALY":258.3977,"EPHEMERIS_TYPE":0,"CLASSIFICATION_TYPE":"U","NORAD_CAT_ID":48985,"ELEMENT_SET_NO":999,"REV_AT_EPOCH":22929,"BSTAR":0.00017914,"MEAN_MOTION_DOT":8.1e-07,"MEAN_MOTION_DDOT":0.0},{"OBJECT_NAME":"ONEWEB-0268","OBJECT_ID":"2021-060V","EPOCH":"2026-03-30T23:37:17.170464","MEAN_MOTION":13.1659545,"ECCENTRICITY":0.0001752,"INCLINATION":87.9035,"RA_OF_ASC_NODE":244.3231,"ARG_OF_PERICENTER":101.6599,"MEAN_ANOMALY":258.4729,"EPHEMERIS_TYPE":0,"CLASSIFICATION_TYPE":"U","NORAD_CAT_ID":48986,"ELEMENT_SET_NO":999,"REV_AT_EPOCH":22956,"BSTAR":-0.00035057,"MEAN_MOTION_DOT":-1.21e-06,"MEAN_MOTION_DDOT":0.0},{"OBJECT_NAME":"ONEWEB-0269","OBJECT_ID":"2021-060W","EPOCH":"2026-03-31T02:48:47.711232","MEAN_MOTION":13.16595284,"ECCENTRICITY":0.0001546,"INCLINATION":87.9025,"RA_OF_ASC_NODE":244.3085,"ARG_OF_PERICENTER":103.2232,"MEAN_ANOMALY":256.9072,"EPHEMERIS_TYPE":0,"CLASSIFICATION_TYPE":"U","NORAD_CAT_ID":48987,"ELEMENT_SET_NO":999,"REV_AT_EPOCH":22935,"BSTAR":8.8211e-05,"MEAN_MOTION_DOT":4.7e-07,"MEAN_MOTION_DDOT":0.0},{"OBJECT_NAME":"ONEWEB-0270","OBJECT_ID":"2021-060X","EPOCH":"2026-03-31T03:13:52.652352","MEAN_MOTION":13.16595986,"ECCENTRICITY":0.0002111,"INCLINATION":87.9033,"RA_OF_ASC_NODE":244.2952,"ARG_OF_PERICENTER":94.6567,"MEAN_ANOMALY":265.4805,"EPHEMERIS_TYPE":0,"CLASSIFICATION_TYPE":"U","NORAD_CAT_ID":48988,"ELEMENT_SET_NO":999,"REV_AT_EPOCH":22939,"BSTAR":-7.2236e-05,"MEAN_MOTION_DOT":-1.5e-07,"MEAN_MOTION_DDOT":0.0},{"OBJECT_NAME":"ONEWEB-0271","OBJECT_ID":"2021-060Y","EPOCH":"2026-03-31T02:55:38.031744","MEAN_MOTION":13.165934,"ECCENTRICITY":0.0002008,"INCLINATION":87.9036,"RA_OF_ASC_NODE":244.289,"ARG_OF_PERICENTER":99.4567,"MEAN_ANOMALY":260.6791,"EPHEMERIS_TYPE":0,"CLASSIFICATION_TYPE":"U","NORAD_CAT_ID":48989,"ELEMENT_SET_NO":999,"REV_AT_EPOCH":22939,"BSTAR":3.7108000000000005e-05,"MEAN_MOTION_DOT":2.7e-07,"MEAN_MOTION_DDOT":0.0},{"OBJECT_NAME":"ONEWEB-0272","OBJECT_ID":"2021-060Z","EPOCH":"2026-03-31T03:27:33.174144","MEAN_MOTION":13.16595579,"ECCENTRICITY":0.0001872,"INCLINATION":87.9034,"RA_OF_ASC_NODE":244.2954,"ARG_OF_PERICENTER":108.2854,"MEAN_ANOMALY":251.8481,"EPHEMERIS_TYPE":0,"CLASSIFICATION_TYPE":"U","NORAD_CAT_ID":48990,"ELEMENT_SET_NO":999,"REV_AT_EPOCH":22934,"BSTAR":-0.00035403,"MEAN_MOTION_DOT":-1.22e-06,"MEAN_MOTION_DDOT":0.0},{"OBJECT_NAME":"ONEWEB-0273","OBJECT_ID":"2021-060AA","EPOCH":"2026-03-30T22:31:10.289856","MEAN_MOTION":13.16594824,"ECCENTRICITY":0.0001891,"INCLINATION":87.9034,"RA_OF_ASC_NODE":244.3347,"ARG_OF_PERICENTER":97.8992,"MEAN_ANOMALY":262.2354,"EPHEMERIS_TYPE":0,"CLASSIFICATION_TYPE":"U","NORAD_CAT_ID":48991,"ELEMENT_SET_NO":999,"REV_AT_EPOCH":22929,"BSTAR":0.00013007,"MEAN_MOTION_DOT":6.3e-07,"MEAN_MOTION_DDOT":0.0},{"OBJECT_NAME":"ONEWEB-0274","OBJECT_ID":"2021-060AB","EPOCH":"2026-03-30T23:07:39.085248","MEAN_MOTION":13.16595026,"ECCENTRICITY":0.0001758,"INCLINATION":87.9024,"RA_OF_ASC_NODE":244.3407,"ARG_OF_PERICENTER":110.6719,"MEAN_ANOMALY":249.46,"EPHEMERIS_TYPE":0,"CLASSIFICATION_TYPE":"U","NORAD_CAT_ID":48992,"ELEMENT_SET_NO":999,"REV_AT_EPOCH":22933,"BSTAR":0.00010381999999999999,"MEAN_MOTION_DOT":5.3e-07,"MEAN_MOTION_DDOT":0.0},{"OBJECT_NAME":"ONEWEB-0275","OBJECT_ID":"2021-060AC","EPOCH":"2026-03-30T22:51:41.374944","MEAN_MOTION":13.16594732,"ECCENTRICITY":0.0001807,"INCLINATION":87.9033,"RA_OF_ASC_NODE":244.3243,"ARG_OF_PERICENTER":101.6406,"MEAN_ANOMALY":258.4928,"EPHEMERIS_TYPE":0,"CLASSIFICATION_TYPE":"U","NORAD_CAT_ID":48993,"ELEMENT_SET_NO":999,"REV_AT_EPOCH":22926,"BSTAR":0.00024815000000000004,"MEAN_MOTION_DOT":1.08e-06,"MEAN_MOTION_DDOT":0.0}]