ONEWEB-0259             
1 48977U 21060L   26090.12513166 -.00000024  00000+0 -97255-4 0  9995
2 48977  87.9036 244.2969 0001888  96.2373 263.8974 13.16595042229357
ONEWEB-0260             
1 48978U 21060M   26090.11641575  .00000073  00000+0  15807-3 0  9995
2 48978  87.9035 244.3044 0001690 113.2309 246.9000 13.16593295229330
ONEWEB-0261             
1 48979U 21060N   26090.16233119  .00000040  00000+0  71056-4 0  9995
2 48979  87.9028 244.2937 0002102 102.0484 258.0882 13.16593720229393
ONEWEB-0262             
1 48980U 21060P   26090.14255203 -.00000052  00000+0 -16905-3 0  9999
2 48980  87.9036 244.2811 0001905  91.2581 268.8768 13.16595396229351
ONEWEB-0263             
1 48981U 21060Q   26089.94622595  .00000094  00000+0  21132-3 0  9990
2 48981  87.9034 244.3317 0002118  99.1208 261.0162 13.16594828229297
ONEWEB-0264             
1 48982U 21060R   26090.13543582 -.00000064  00000+0 -20139-3 0  9997
2 48982  87.9036 244.2978 0001896 105.5624 254.5717 13.16593895229328
ONEWEB-0266             
1 48984U 21060T   26089.92880282  .00000021  00000+0  20577-4 0  9993
2 48984  87.9034 244.3284 0001713  96.9983 263.1343 13.16593031229286
ONEWEB-0267             
1 48985U 21060U   26089.93989634  .00000081  00000+0  17914-3 0  9992
2 48985  87.9033 244.3225 0001926 101.7371 258.3977 13.16594813229292
ONEWEB-0268             
1 48986U 21060V   26089.98422651 -.00000121  00000+0 -35057-3 0  9994
2 48986  87.9035 244.3231 0001752 101.6599 258.4729 13.16595450229564
ONEWEB-0269             
1 48987U 21060W   26090.11721888  .00000047  00000+0  88211-4 0  9992
2 48987  87.9025 244.3085 0001546 103.2232 256.9072 13.16595284229350
ONEWEB-0270             
1 48988U 21060X   26090.13463718 -.00000015  00000+0 -72236-4 0  9997
2 48988  87.9033 244.2952 0002111  94.6567 265.4805 13.16595986229397
ONEWEB-0271             
1 48989U 21060Y   26090.12196796  .00000027  00000+0  37108-4 0  9996
2 48989  87.9036 244.2890 0002008  99.4567 260.6791 13.16593400229390
ONEWEB-0272             
1 48990U 21060Z   26090.14413396 -.00000122  00000+0 -35403-3 0  9991
2 48990  87.9034 244.2954 0001872 108.2854 251.8481 13.16595579229349
ONEWEB-0273             
1 48991U 21060AA  26089.93831354  .00000063  00000+0  13007-3 0  9993
2 48991  87.9034 244.3347 0001891  97.8992 262.2354 13.16594824229295
ONEWEB-0274             
1 48992U 21060AB  26089.96364682  .00000053  00000+0  10382-3 0  9994
2 48992  87.9024 244.3407 0001758 110.6719 249.4600 13.16595026229336
ONEWEB-0275             
1 48993U 21060AC  26089.95256221  .00000108  00000+0  24815-3 0  9990
2 48993  87.9033 244.3243 0001807 101.6406 258.4928 13.16594732229261
